[
    {
        "Altitude(m)": 604234.5954170827,
        "Argument of Periapsis(deg)": 0.0,
        "Eccentricity": 0.0,
        "Inclination(deg)": 60.0,
        "Latitude(deg)": 14.117156994869445,
        "Longitude(deg)": -33.272690790965605,
        "Mean Anomaly(deg)": -196.36359999999996,
        "RAAN(deg)": 255.0,
        "Satellite Name": "Test1 1132",
        "Satellite Number": 1132,
        "Semi-Major Axis(m)": 6980739.136638005,
        "Time(s)": 0
    },
    {
        "Altitude(m)": 604223.4245307884,
        "Argument of Periapsis(deg)": 0.00010418945913296404,
        "Eccentricity": 0.0,
        "Inclination(deg)": 60.0,
        "Latitude(deg)": 13.58229372539499,
        "Longitude(deg)": -32.98578099524374,
        "Mean Anomaly(deg)": -195.74349385453812,
        "RAAN(deg)": 254.99957995086027,
        "Satellite Name": "Test1 1132",
        "Satellite Number": 1132,
        "Semi-Major Axis(m)": 6980739.136638005,
        "Time(s)": 10
    },
    {
        "Altitude(m)": 604215.2089081823,
        "Argument of Periapsis(deg)": 0.0002083789182659281,
        "Eccentricity": 0.0,
        "Inclination(deg)": 60.0,
        "Latitude(deg)": 13.0469823188098,
        "Longitude(deg)": -32.70034170552846,
        "Mean Anomaly(deg)": -195.12338770907633,
        "RAAN(deg)": 254.9991599017205,
        "Satellite Name": "Test1 1132",
        "Satellite Number": 1132,
        "Semi-Major Axis(m)": 6980739.136638005,
        "Time(s)": 20
    },
    {
        "Altitude(m)": 604209.9764410732,
        "Argument of Periapsis(deg)": 0.00031256837739889213,
        "Eccentricity": 0.0,
        "Inclination(deg)": 60.0,
        "Latitude(deg)": 12.511243163830692,
        "Longitude(deg)": -32.416308208478064,
        "Mean Anomaly(deg)": -194.50328156361448,
        "RAAN(deg)": 254.9987398525808,
        "Satellite Name": "Test1 1132",
        "Satellite Number": 1132,
        "Semi-Major Axis(m)": 6980739.136638005,
        "Time(s)": 30
    },
    {
        "Altitude(m)": 604207.7536772192,
        "Argument of Periapsis(deg)": 0.0004167578365318562,
        "Eccentricity": 0.0,
        "Inclination(deg)": 60.0,
        "Latitude(deg)": 11.975096373219841,
        "Longitude(deg)": -32.13361613612234,
        "Mean Anomaly(deg)": -193.88317541815266,
        "RAAN(deg)": 254.99831980344106,
        "Satellite Name": "Test1 1132",
        "Satellite Number": 1132,
        "Semi-Major Axis(m)": 6980739.136638005,
        "Time(s)": 40
    },
    {
        "Altitude(m)": 604208.565804561,
        "Argument of Periapsis(deg)": 0.0005209472956648203,
        "Eccentricity": 0.0,
        "Inclination(deg)": 60.0,
        "Latitude(deg)": 11.438561797730419,
        "Longitude(deg)": -31.852202434145212,
        "Mean Anomaly(deg)": -193.2630692726908,
        "RAAN(deg)": 254.9978997543013,
        "Satellite Name": "Test1 1132",
        "Satellite Number": 1132,
        "Semi-Major Axis(m)": 6980739.136638005,
        "Time(s)": 50
    },
    {
        "Altitude(m)": 604212.4366360593,
        "Argument of Periapsis(deg)": 0.0006251367547977843,
        "Eccentricity": 0.0,
        "Inclination(deg)": 60.0,
        "Latitude(deg)": 10.901659039698504,
        "Longitude(deg)": -31.572004817984137,
        "Mean Anomaly(deg)": -192.64296312722902,
        "RAAN(deg)": 254.99747970516154,
        "Satellite Name": "Test1 1132",
        "Satellite Number": 1132,
        "Semi-Major Axis(m)": 6980739.136638005,
        "Time(s)": 60
    },
    {
        "Altitude(m)": 604219.3885952511,
        "Argument of Periapsis(deg)": 0.0007293262139307483,
        "Eccentricity": 0.0,
        "Inclination(deg)": 60.0,
        "Latitude(deg)": 10.364407466296576,
        "Longitude(deg)": -31.29296122958632,
        "Mean Anomaly(deg)": -192.02285698176718,
        "RAAN(deg)": 254.99705965602183,
        "Satellite Name": "Test1 1132",
        "Satellite Number": 1132,
        "Semi-Major Axis(m)": 6980739.136638005,
        "Time(s)": 70
    },
    {
        "Altitude(m)": 604229.4427024333,
        "Argument of Periapsis(deg)": 0.0008335156730637124,
        "Eccentricity": 0.0,
        "Inclination(deg)": 60.0,
        "Latitude(deg)": 9.826826222466385,
        "Longitude(deg)": -31.015010807668446,
        "Mean Anomaly(deg)": -191.40275083630536,
        "RAAN(deg)": 254.9966396068821,
        "Satellite Name": "Test1 1132",
        "Satellite Number": 1132,
        "Semi-Major Axis(m)": 6980739.136638005,
        "Time(s)": 80
    },
    {
        "Altitude(m)": 604242.6185615622,
        "Argument of Periapsis(deg)": 0.0009377051321966765,
        "Eccentricity": 0.0,
        "Inclination(deg)": 60.0,
        "Latitude(deg)": 9.288934243552248,
        "Longitude(deg)": -30.738093345702275,
        "Mean Anomaly(deg)": -190.7826446908435,
        "RAAN(deg)": 254.99621955774234,
        "Satellite Name": "Test1 1132",
        "Satellite Number": 1132,
        "Semi-Major Axis(m)": 6980739.136638005,
        "Time(s)": 90
    },
    {
        "Altitude(m)": 604258.9343477988,
        "Argument of Periapsis(deg)": 0.0010418945913296407,
        "Eccentricity": 0.0,
        "Inclination(deg)": 60.0,
        "Latitude(deg)": 8.750750267651279,
        "Longitude(deg)": -30.462148750470522,
        "Mean Anomaly(deg)": -190.16253854538166,
        "RAAN(deg)": 254.99579950860257,
        "Satellite Name": "Test1 1132",
        "Satellite Number": 1132,
        "Semi-Major Axis(m)": 6980739.136638005,
        "Time(s)": 100
    },
    {
        "Altitude(m)": 604278.4067958076,
        "Argument of Periapsis(deg)": 0.0011460840504626045,
        "Eccentricity": 0.0,
        "Inclination(deg)": 60.0,
        "Latitude(deg)": 8.212292847695094,
        "Longitude(deg)": -30.187118014036592,
        "Mean Anomaly(deg)": -189.54243239991987,
        "RAAN(deg)": 254.99537945946287,
        "Satellite Name": "Test1 1132",
        "Satellite Number": 1132,
        "Semi-Major Axis(m)": 6980739.136638005,
        "Time(s)": 110
    },
    {
        "Altitude(m)": 604301.0511886847,
        "Argument of Periapsis(deg)": 0.0012502735095955685,
        "Eccentricity": 0.0,
        "Inclination(deg)": 60.0,
        "Latitude(deg)": 7.673580363283489,
        "Longitude(deg)": -29.9129426733512,
        "Mean Anomaly(deg)": -188.922326254458,
        "RAAN(deg)": 254.99495941032313,
        "Satellite Name": "Test1 1132",
        "Satellite Number": 1132,
        "Semi-Major Axis(m)": 6980739.136638005,
        "Time(s)": 120
    },
    {
        "Altitude(m)": 604326.8813476551,
        "Argument of Periapsis(deg)": 0.0013544629687285324,
        "Eccentricity": 0.0,
        "Inclination(deg)": 60.0,
        "Latitude(deg)": 7.134631032285849,
        "Longitude(deg)": -29.639564270340475,
        "Mean Anomaly(deg)": -188.3022201089962,
        "RAAN(deg)": 254.99453936118337,
        "Satellite Name": "Test1 1132",
        "Satellite Number": 1132,
        "Semi-Major Axis(m)": 6980739.136638005,
        "Time(s)": 130
    },
    {
        "Altitude(m)": 604355.9096224507,
        "Argument of Periapsis(deg)": 0.0014586524278614966,
        "Eccentricity": 0.0,
        "Inclination(deg)": 60.0,
        "Latitude(deg)": 6.59546292222218,
        "Longitude(deg)": -29.36692532531794,
        "Mean Anomaly(deg)": -187.68211396353433,
        "RAAN(deg)": 254.9941193120436,
        "Satellite Name": "Test1 1132",
        "Satellite Number": 1132,
        "Semi-Major Axis(m)": 6980739.136638005,
        "Time(s)": 140
    },
    {
        "Altitude(m)": 604388.1468824107,
        "Argument of Periapsis(deg)": 0.0015628418869944607,
        "Eccentricity": 0.0,
        "Inclination(deg)": 60.0,
        "Latitude(deg)": 6.056093961445467,
        "Longitude(deg)": -29.09496879794533,
        "Mean Anomaly(deg)": -187.0620078180725,
        "RAAN(deg)": 254.9936992629039,
        "Satellite Name": "Test1 1132",
        "Satellite Number": 1132,
        "Semi-Major Axis(m)": 6980739.136638005,
        "Time(s)": 150
    },
    {
        "Altitude(m)": 604423.6025083186,
        "Argument of Periapsis(deg)": 0.0016670313461274247,
        "Eccentricity": 0.0,
        "Inclination(deg)": 60.0,
        "Latitude(deg)": 5.516541950137629,
        "Longitude(deg)": -28.82363754858541,
        "Mean Anomaly(deg)": -186.4419016726107,
        "RAAN(deg)": 254.99327921376417,
        "Satellite Name": "Test1 1132",
        "Satellite Number": 1132,
        "Semi-Major Axis(m)": 6980739.136638005,
        "Time(s)": 160
    },
    {
        "Altitude(m)": 604462.2843849552,
        "Argument of Periapsis(deg)": 0.0017712208052603888,
        "Eccentricity": 0.0,
        "Inclination(deg)": 60.0,
        "Latitude(deg)": 4.9768245711316865,
        "Longitude(deg)": -28.55287531288965,
        "Mean Anomaly(deg)": -185.82179552714888,
        "RAAN(deg)": 254.9928591646244,
        "Satellite Name": "Test1 1132",
        "Satellite Number": 1132,
        "Semi-Major Axis(m)": 6980739.136638005,
        "Time(s)": 170
    },
    {
        "Altitude(m)": 604504.1988943968,
        "Argument of Periapsis(deg)": 0.001875410264393353,
        "Eccentricity": 0.0,
        "Inclination(deg)": 60.0,
        "Latitude(deg)": 4.436959400580468,
        "Longitude(deg)": -28.28262616384692,
        "Mean Anomaly(deg)": -185.20168938168703,
        "RAAN(deg)": 254.99243911548464,
        "Satellite Name": "Test1 1132",
        "Satellite Number": 1132,
        "Semi-Major Axis(m)": 6980739.136638005,
        "Time(s)": 180
    },
    {
        "Altitude(m)": 604549.3509100334,
        "Argument of Periapsis(deg)": 0.0019795997235263173,
        "Eccentricity": 0.0,
        "Inclination(deg)": 60.0,
        "Latitude(deg)": 3.896963918483297,
        "Longitude(deg)": -28.01283397413478,
        "Mean Anomaly(deg)": -184.58158323622524,
        "RAAN(deg)": 254.99201906634494,
        "Satellite Name": "Test1 1132",
        "Satellite Number": 1132,
        "Semi-Major Axis(m)": 6980739.136638005,
        "Time(s)": 190
    }
]